[
  {
    "OBJECT_NAME": "STARLINK-31814",
    "OBJECT_ID": "24093W",
    "EPOCH": "2025-11-10T23:15:01.154304",
    "MEAN_MOTION": 15.27593905,
    "ECCENTRICITY": 0.0001409,
    "INCLINATION": 43.0035,
    "RA_OF_ASC_NODE": 159.7774,
    "ARG_OF_PERICENTER": 248.7458,
    "MEAN_ANOMALY": 111.3244,
    "EPHEMERIS_TYPE": 0,
    "CLASSIFICATION_TYPE": "U",
    "NORAD_CAT_ID": 59802,
    "ELEMENT_SET_NO": 999,
    "REV_AT_EPOCH": 8453,
    "BSTAR": 2.9667e-05,
    "MEAN_MOTION_DOT": 5.55e-06,
    "MEAN_MOTION_DDOT": 0.0,
    "TLE_LINE1": "1 59802U 24093W   25314.96876336  .00000555  00000+0  29667-4 0  9993",
    "TLE_LINE2": "2 59802  43.0035 159.7774 0001409 248.7458 111.3244 15.27593905 84535",
    "COMMENT": "Grouped by shell and plane from TLE"
  },
  {
    "OBJECT_NAME": "STARLINK-31794",
    "OBJECT_ID": "24093X",
    "EPOCH": "2025-11-11T06:51:00.963648",
    "MEAN_MOTION": 15.27577991,
    "ECCENTRICITY": 7.93e-05,
    "INCLINATION": 43.0042,
    "RA_OF_ASC_NODE": 157.8719,
    "ARG_OF_PERICENTER": 271.3733,
    "MEAN_ANOMALY": 88.7028,
    "EPHEMERIS_TYPE": 0,
    "CLASSIFICATION_TYPE": "U",
    "NORAD_CAT_ID": 59803,
    "ELEMENT_SET_NO": 999,
    "REV_AT_EPOCH": 8465,
    "BSTAR": 0.00010554,
    "MEAN_MOTION_DOT": 2.643e-05,
    "MEAN_MOTION_DDOT": 0.0,
    "TLE_LINE1": "1 59803U 24093X   25315.28542782  .00002643  00000+0  10554-3 0  9999",
    "TLE_LINE2": "2 59803  43.0042 157.8719 0000793 271.3733  88.7028 15.27577991 84652",
    "COMMENT": "Grouped by shell and plane from TLE"
  },
  {
    "OBJECT_NAME": "STARLINK-31824",
    "OBJECT_ID": "24093Y",
    "EPOCH": "2025-11-11T06:45:27.496800",
    "MEAN_MOTION": 15.27583673,
    "ECCENTRICITY": 7.74e-05,
    "INCLINATION": 42.9996,
    "RA_OF_ASC_NODE": 157.8421,
    "ARG_OF_PERICENTER": 263.4778,
    "MEAN_ANOMALY": 96.5985,
    "EPHEMERIS_TYPE": 0,
    "CLASSIFICATION_TYPE": "U",
    "NORAD_CAT_ID": 59804,
    "ELEMENT_SET_NO": 999,
    "REV_AT_EPOCH": 8458,
    "BSTAR": 8.953700000000001e-05,
    "MEAN_MOTION_DOT": 2.203e-05,
    "MEAN_MOTION_DDOT": 0.0,
    "TLE_LINE1": "1 59804U 24093Y   25315.28156825  .00002203  00000+0  89537-4 0  9999",
    "TLE_LINE2": "2 59804  42.9996 157.8421 0000774 263.4778  96.5985 15.27583673 84584",
    "COMMENT": "Grouped by shell and plane from TLE"
  },
  {
    "OBJECT_NAME": "STARLINK-32043",
    "OBJECT_ID": "24120A",
    "EPOCH": "2025-11-10T00:14:24.399168",
    "MEAN_MOTION": 15.30185378,
    "ECCENTRICITY": 0.0001127,
    "INCLINATION": 53.1586,
    "RA_OF_ASC_NODE": 155.7557,
    "ARG_OF_PERICENTER": 98.1886,
    "MEAN_ANOMALY": 261.9243,
    "EPHEMERIS_TYPE": 0,
    "CLASSIFICATION_TYPE": "U",
    "NORAD_CAT_ID": 60135,
    "ELEMENT_SET_NO": 999,
    "REV_AT_EPOCH": 7805,
    "BSTAR": 0.0,
    "MEAN_MOTION_DOT": -1.096e-05,
    "MEAN_MOTION_DDOT": 0.0,
    "TLE_LINE1": "1 60135U 24120A   25314.01000462 -.00001096  00000+0 -24900-4 0  9998",
    "TLE_LINE2": "2 60135  53.1586 155.7557 0001127  98.1886 261.9243 15.30185378 78059",
    "COMMENT": "Grouped by shell and plane from TLE"
  },
  {
    "OBJECT_NAME": "STARLINK-32112",
    "OBJECT_ID": "24120B",
    "EPOCH": "2025-11-11T06:47:00.356064",
    "MEAN_MOTION": 15.3018987,
    "ECCENTRICITY": 0.0002267,
    "INCLINATION": 53.159,
    "RA_OF_ASC_NODE": 150.1905,
    "ARG_OF_PERICENTER": 88.9882,
    "MEAN_ANOMALY": 271.1379,
    "EPHEMERIS_TYPE": 0,
    "CLASSIFICATION_TYPE": "U",
    "NORAD_CAT_ID": 60136,
    "ELEMENT_SET_NO": 999,
    "REV_AT_EPOCH": 7832,
    "BSTAR": 8.1185e-06,
    "MEAN_MOTION_DOT": -1.19e-06,
    "MEAN_MOTION_DDOT": 0.0,
    "TLE_LINE1": "1 60136U 24120B   25315.28264301 -.00000119  00000+0  81185-5 0  9996",
    "TLE_LINE2": "2 60136  53.1590 150.1905 0002267  88.9882 271.1379 15.30189870 78324",
    "COMMENT": "Grouped by shell and plane from TLE"
  },
  {
    "OBJECT_NAME": "STARLINK-32050",
    "OBJECT_ID": "24120C",
    "EPOCH": "2025-11-10T23:05:50.290368",
    "MEAN_MOTION": 15.3020248,
    "ECCENTRICITY": 0.00012,
    "INCLINATION": 53.1592,
    "RA_OF_ASC_NODE": 151.7484,
    "ARG_OF_PERICENTER": 82.0387,
    "MEAN_ANOMALY": 278.075,
    "EPHEMERIS_TYPE": 0,
    "CLASSIFICATION_TYPE": "U",
    "NORAD_CAT_ID": 60137,
    "ELEMENT_SET_NO": 999,
    "REV_AT_EPOCH": 7819,
    "BSTAR": 5.2681999999999995e-05,
    "MEAN_MOTION_DOT": 1.202e-05,
    "MEAN_MOTION_DDOT": 0.0,
    "TLE_LINE1": "1 60137U 24120C   25314.96238762  .00001202  00000+0  52682-4 0  9995",
    "TLE_LINE2": "2 60137  53.1592 151.7484 0001200  82.0387 278.0750 15.30202480 78194",
    "COMMENT": "Grouped by shell and plane from TLE"
  },
  {
    "OBJECT_NAME": "STARLINK-32025",
    "OBJECT_ID": "24120D",
    "EPOCH": "2025-11-10T23:20:52.442016",
    "MEAN_MOTION": 15.30200192,
    "ECCENTRICITY": 0.0001198,
    "INCLINATION": 53.157,
    "RA_OF_ASC_NODE": 151.0973,
    "ARG_OF_PERICENTER": 82.5967,
    "MEAN_ANOMALY": 277.517,
    "EPHEMERIS_TYPE": 0,
    "CLASSIFICATION_TYPE": "U",
    "NORAD_CAT_ID": 60138,
    "ELEMENT_SET_NO": 999,
    "REV_AT_EPOCH": 7820,
    "BSTAR": 2.2816e-05,
    "MEAN_MOTION_DOT": 3.17e-06,
    "MEAN_MOTION_DDOT": 0.0,
    "TLE_LINE1": "1 60138U 24120D   25314.97282919  .00000317  00000+0  22816-4 0  9992",
    "TLE_LINE2": "2 60138  53.1570 151.0973 0001198  82.5967 277.5170 15.30200192 78202",
    "COMMENT": "Grouped by shell and plane from TLE"
  },
  {
    "OBJECT_NAME": "STARLINK-31867",
    "OBJECT_ID": "24120E",
    "EPOCH": "2025-11-10T13:57:44.721504",
    "MEAN_MOTION": 15.33033015,
    "ECCENTRICITY": 0.0001704,
    "INCLINATION": 53.1566,
    "RA_OF_ASC_NODE": 152.9381,
    "ARG_OF_PERICENTER": 166.8597,
    "MEAN_ANOMALY": 193.245,
    "EPHEMERIS_TYPE": 0,
    "CLASSIFICATION_TYPE": "U",
    "NORAD_CAT_ID": 60139,
    "ELEMENT_SET_NO": 999,
    "REV_AT_EPOCH": 7814,
    "BSTAR": 0.00062754,
    "MEAN_MOTION_DOT": 0.00019989,
    "MEAN_MOTION_DDOT": 0.0,
    "TLE_LINE1": "1 60139U 24120E   25314.58176761  .00019989  00000+0  62754-3 0  9996",
    "TLE_LINE2": "2 60139  53.1566 152.9381 0001704 166.8597 193.2450 15.33033015 78148",
    "COMMENT": "Grouped by shell and plane from TLE"
  },
  {
    "OBJECT_NAME": "STARLINK-31694",
    "OBJECT_ID": "24120F",
    "EPOCH": "2025-11-11T06:43:57.459360",
    "MEAN_MOTION": 15.3018976,
    "ECCENTRICITY": 0.0001884,
    "INCLINATION": 53.1585,
    "RA_OF_ASC_NODE": 150.1779,
    "ARG_OF_PERICENTER": 84.3944,
    "MEAN_ANOMALY": 275.7271,
    "EPHEMERIS_TYPE": 0,
    "CLASSIFICATION_TYPE": "U",
    "NORAD_CAT_ID": 60140,
    "ELEMENT_SET_NO": 999,
    "REV_AT_EPOCH": 7832,
    "BSTAR": 6.6504e-06,
    "MEAN_MOTION_DOT": -1.63e-06,
    "MEAN_MOTION_DDOT": 0.0,
    "TLE_LINE1": "1 60140U 24120F   25315.28052615 -.00000163  00000+0  66504-5 0  9991",
    "TLE_LINE2": "2 60140  53.1585 150.1779 0001884  84.3944 275.7271 15.30189760 78324",
    "COMMENT": "Grouped by shell and plane from TLE"
  },
  {
    "OBJECT_NAME": "STARLINK-32036",
    "OBJECT_ID": "24120G",
    "EPOCH": "2025-11-11T06:42:25.788960",
    "MEAN_MOTION": 15.30193541,
    "ECCENTRICITY": 0.000122,
    "INCLINATION": 53.1591,
    "RA_OF_ASC_NODE": 150.1708,
    "ARG_OF_PERICENTER": 93.854,
    "MEAN_ANOMALY": 266.26,
    "EPHEMERIS_TYPE": 0,
    "CLASSIFICATION_TYPE": "U",
    "NORAD_CAT_ID": 60141,
    "ELEMENT_SET_NO": 999,
    "REV_AT_EPOCH": 7832,
    "BSTAR": 3.6188e-05,
    "MEAN_MOTION_DOT": 7.13e-06,
    "MEAN_MOTION_DDOT": 0.0,
    "TLE_LINE1": "1 60141U 24120G   25315.27946515  .00000713  00000+0  36188-4 0  9996",
    "TLE_LINE2": "2 60141  53.1591 150.1708 0001220  93.8540 266.2600 15.30193541 78328",
    "COMMENT": "Grouped by shell and plane from TLE"
  },
  {
    "OBJECT_NAME": "STARLINK-32031",
    "OBJECT_ID": "24120H",
    "EPOCH": "2025-11-11T06:33:19.021248",
    "MEAN_MOTION": 15.30193472,
    "ECCENTRICITY": 0.0001473,
    "INCLINATION": 53.1586,
    "RA_OF_ASC_NODE": 150.1306,
    "ARG_OF_PERICENTER": 86.6379,
    "MEAN_ANOMALY": 273.479,
    "EPHEMERIS_TYPE": 0,
    "CLASSIFICATION_TYPE": "U",
    "NORAD_CAT_ID": 60142,
    "ELEMENT_SET_NO": 999,
    "REV_AT_EPOCH": 7832,
    "BSTAR": 2.5617000000000002e-05,
    "MEAN_MOTION_DOT": 3.99e-06,
    "MEAN_MOTION_DDOT": 0.0,
    "TLE_LINE1": "1 60142U 24120H   25315.27313682  .00000399  00000+0  25617-4 0  9995",
    "TLE_LINE2": "2 60142  53.1586 150.1306 0001473  86.6379 273.4790 15.30193472 78320",
    "COMMENT": "Grouped by shell and plane from TLE"
  },
  {
    "OBJECT_NAME": "STARLINK-32027",
    "OBJECT_ID": "24120J",
    "EPOCH": "2025-11-10T20:06:41.018400",
    "MEAN_MOTION": 15.30196696,
    "ECCENTRICITY": 9.82e-05,
    "INCLINATION": 53.1607,
    "RA_OF_ASC_NODE": 151.6369,
    "ARG_OF_PERICENTER": 69.0832,
    "MEAN_ANOMALY": 291.0274,
    "EPHEMERIS_TYPE": 0,
    "CLASSIFICATION_TYPE": "U",
    "NORAD_CAT_ID": 60143,
    "ELEMENT_SET_NO": 999,
    "REV_AT_EPOCH": 7826,
    "BSTAR": 3.4298e-06,
    "MEAN_MOTION_DOT": -2.57e-06,
    "MEAN_MOTION_DDOT": 0.0,
    "TLE_LINE1": "1 60143U 24120J   25314.83797475 -.00000257  00000+0  34298-5 0  9993",
    "TLE_LINE2": "2 60143  53.1607 151.6369 0000982  69.0832 291.0274 15.30196696 78260",
    "COMMENT": "Grouped by shell and plane from TLE"
  },
  {
    "OBJECT_NAME": "STARLINK-32029",
    "OBJECT_ID": "24120L",
    "EPOCH": "2025-11-10T22:29:21.955488",
    "MEAN_MOTION": 15.30181307,
    "ECCENTRICITY": 0.0001586,
    "INCLINATION": 53.1586,
    "RA_OF_ASC_NODE": 151.5861,
    "ARG_OF_PERICENTER": 92.2054,
    "MEAN_ANOMALY": 267.9129,
    "EPHEMERIS_TYPE": 0,
    "CLASSIFICATION_TYPE": "U",
    "NORAD_CAT_ID": 60145,
    "ELEMENT_SET_NO": 999,
    "REV_AT_EPOCH": 7819,
    "BSTAR": 9.212800000000001e-05,
    "MEAN_MOTION_DOT": 2.369e-05,
    "MEAN_MOTION_DDOT": 0.0,
    "TLE_LINE1": "1 60145U 24120L   25314.93705967  .00002369  00000+0  92128-4 0  9991",
    "TLE_LINE2": "2 60145  53.1586 151.5861 0001586  92.2054 267.9129 15.30181307 78195",
    "COMMENT": "Grouped by shell and plane from TLE"
  }
]